{
  "type": "FeatureCollection",
  "features": [
    {
      "type": "Feature",
      "properties": {
        "norad_id": 66909,
        "name": "SILVERSAT",
        "group": "stations",
        "lat": -24.19856532550613,
        "lon": -38.96566751452927,
        "alt_km": 411.3810617136751,
        "timestamp": "2025-12-17T04:57:43.223273+00:00",
        "meta_object_name": "SILVERSAT",
        "meta_object_id": "1998-067XV",
        "meta_epoch": "2025-12-16T14:08:52.774080",
        "meta_mean_motion": 15.52156791,
        "meta_eccentricity": 0.00040754,
        "meta_inclination": 51.6305,
        "meta_ra_of_asc_node": 123.2468,
        "meta_arg_of_pericenter": 249.7085,
        "meta_mean_anomaly": 110.3467,
        "meta_ephemeris_type": 0,
        "meta_classification_type": "U",
        "meta_norad_cat_id": 66909,
        "meta_element_set_no": 999,
        "meta_rev_at_epoch": 221,
        "meta_bstar": 0.00095917161,
        "meta_mean_motion_dot": 0.00059105,
        "meta_mean_motion_ddot": 0,
        "tle_line1": "1 66909U 98067XV  25350.58949970  .00059105  00000+0  95917-3 0  9999",
        "tle_line2": "2 66909  51.6305 123.2468 0004075 249.7085 110.3467 15.52156791  2218"
      },
      "geometry": {
        "type": "Point",
        "coordinates": [
          -38.96566751452927,
          -24.19856532550613
        ]
      }
    },
    {
      "type": "Feature",
      "properties": {
        "norad_id": 66910,
        "name": "1998-067XW",
        "group": "stations",
        "lat": -31.139345575158234,
        "lon": -31.242665710945655,
        "alt_km": 410.69904257244434,
        "timestamp": "2025-12-17T04:57:43.223282+00:00",
        "meta_object_name": "1998-067XW",
        "meta_object_id": "1998-067XW",
        "meta_epoch": "2025-12-16T14:06:24.222240",
        "meta_mean_motion": 15.52215974,
        "meta_eccentricity": 0.00046619,
        "meta_inclination": 51.6297,
        "meta_ra_of_asc_node": 123.2359,
        "meta_arg_of_pericenter": 228.2549,
        "meta_mean_anomaly": 131.8043,
        "meta_ephemeris_type": 0,
        "meta_classification_type": "U",
        "meta_norad_cat_id": 66910,
        "meta_element_set_no": 999,
        "meta_rev_at_epoch": 221,
        "meta_bstar": 0.00082001517,
        "meta_mean_motion_dot": 0.00050519,
        "meta_mean_motion_ddot": 0,
        "tle_line1": "1 66910U 98067XW  25350.58778035  .00050519  00000+0  82002-3 0  9994",
        "tle_line2": "2 66910  51.6297 123.2359 0004661 228.2549 131.8043 15.52215974  2214"
      },
      "geometry": {
        "type": "Point",
        "coordinates": [
          -31.242665710945655,
          -31.139345575158234
        ]
      }
    },
    {
      "type": "Feature",
      "properties": {
        "norad_id": 66911,
        "name": "1998-067XX",
        "group": "stations",
        "lat": -37.094921078748506,
        "lon": -23.055475885657703,
        "alt_km": 410.12675481461883,
        "timestamp": "2025-12-17T04:57:43.223291+00:00",
        "meta_object_name": "1998-067XX",
        "meta_object_id": "1998-067XX",
        "meta_epoch": "2025-12-16T21:47:43.238976",
        "meta_mean_motion": 15.52613586,
        "meta_eccentricity": 0.00043348,
        "meta_inclination": 51.6301,
        "meta_ra_of_asc_node": 121.625,
        "meta_arg_of_pericenter": 233.1446,
        "meta_mean_anomaly": 126.9147,
        "meta_ephemeris_type": 0,
        "meta_classification_type": "U",
        "meta_norad_cat_id": 66911,
        "meta_element_set_no": 999,
        "meta_rev_at_epoch": 225,
        "meta_bstar": 0.0010270011,
        "meta_mean_motion_dot": 0.00064419,
        "meta_mean_motion_ddot": 0,
        "tle_line1": "1 66911U 98067XX  25350.90813934  .00064419  00000+0  10270-2 0  9990",
        "tle_line2": "2 66911  51.6301 121.6250 0004334 233.1446 126.9147 15.52613586  2256"
      },
      "geometry": {
        "type": "Point",
        "coordinates": [
          -23.055475885657703,
          -37.094921078748506
        ]
      }
    },
    {
      "type": "Feature",
      "properties": {
        "norad_id": 66912,
        "name": "1998-067XY",
        "group": "stations",
        "lat": -10.035618150421811,
        "lon": -51.72392697794102,
        "alt_km": 412.3902209332209,
        "timestamp": "2025-12-17T04:57:43.223300+00:00",
        "meta_object_name": "1998-067XY",
        "meta_object_id": "1998-067XY",
        "meta_epoch": "2025-12-16T15:46:04.337760",
        "meta_mean_motion": 15.51521639,
        "meta_eccentricity": 0.00042238,
        "meta_inclination": 51.6299,
        "meta_ra_of_asc_node": 122.9476,
        "meta_arg_of_pericenter": 244.4597,
        "meta_mean_anomaly": 115.5956,
        "meta_ephemeris_type": 0,
        "meta_classification_type": "U",
        "meta_norad_cat_id": 66912,
        "meta_element_set_no": 999,
        "meta_rev_at_epoch": 221,
        "meta_bstar": 0.00074796807,
        "meta_mean_motion_dot": 0.00044864,
        "meta_mean_motion_ddot": 0,
        "tle_line1": "1 66912U 98067XY  25350.65699465  .00044864  00000+0  74797-3 0  9991",
        "tle_line2": "2 66912  51.6299 122.9476 0004223 244.4597 115.5956 15.51521639  2210"
      },
      "geometry": {
        "type": "Point",
        "coordinates": [
          -51.72392697794102,
          -10.035618150421811
        ]
      }
    }
  ]
}